[
  {
    "OBJECT_NAME": "STARLINK-3635",
    "OBJECT_ID": "22025AB",
    "EPOCH": "2025-11-11T02:41:02.449824",
    "MEAN_MOTION": 15.08846283,
    "ECCENTRICITY": 0.0001502,
    "INCLINATION": 53.2169,
    "RA_OF_ASC_NODE": 211.4383,
    "ARG_OF_PERICENTER": 89.2278,
    "MEAN_ANOMALY": 270.8886,
    "EPHEMERIS_TYPE": 0,
    "CLASSIFICATION_TYPE": "U",
    "NORAD_CAT_ID": 51981,
    "ELEMENT_SET_NO": 999,
    "REV_AT_EPOCH": 20315,
    "BSTAR": 0.00013685,
    "MEAN_MOTION_DOT": 1.891e-05,
    "MEAN_MOTION_DDOT": 0.0,
    "TLE_LINE1": "1 51981U 22025AB  25315.11183391  .00001891  00000+0  13685-3 0  9992",
    "TLE_LINE2": "2 51981  53.2169 211.4383 0001502  89.2278 270.8886 15.08846283203153",
    "COMMENT": "Grouped by shell and plane from TLE"
  },
  {
    "OBJECT_NAME": "STARLINK-3655",
    "OBJECT_ID": "22025AD",
    "EPOCH": "2025-11-11T02:35:46.530816",
    "MEAN_MOTION": 15.08837668,
    "ECCENTRICITY": 0.0001173,
    "INCLINATION": 53.2151,
    "RA_OF_ASC_NODE": 211.4626,
    "ARG_OF_PERICENTER": 77.5749,
    "MEAN_ANOMALY": 282.5375,
    "EPHEMERIS_TYPE": 0,
    "CLASSIFICATION_TYPE": "U",
    "NORAD_CAT_ID": 51983,
    "ELEMENT_SET_NO": 999,
    "REV_AT_EPOCH": 20315,
    "BSTAR": 0.00017149,
    "MEAN_MOTION_DOT": 2.442e-05,
    "MEAN_MOTION_DDOT": 0.0,
    "TLE_LINE1": "1 51983U 22025AD  25315.10817744  .00002442  00000+0  17149-3 0  9991",
    "TLE_LINE2": "2 51983  53.2151 211.4626 0001173  77.5749 282.5375 15.08837668203153",
    "COMMENT": "Grouped by shell and plane from TLE"
  },
  {
    "OBJECT_NAME": "STARLINK-3664",
    "OBJECT_ID": "22025AE",
    "EPOCH": "2025-11-11T03:30:08.053056",
    "MEAN_MOTION": 15.08837739,
    "ECCENTRICITY": 0.0001122,
    "INCLINATION": 53.216,
    "RA_OF_ASC_NODE": 211.3717,
    "ARG_OF_PERICENTER": 87.4955,
    "MEAN_ANOMALY": 272.6165,
    "EPHEMERIS_TYPE": 0,
    "CLASSIFICATION_TYPE": "U",
    "NORAD_CAT_ID": 51984,
    "ELEMENT_SET_NO": 999,
    "REV_AT_EPOCH": 20316,
    "BSTAR": 8.9183e-05,
    "MEAN_MOTION_DOT": 1.132e-05,
    "MEAN_MOTION_DDOT": 0.0,
    "TLE_LINE1": "1 51984U 22025AE  25315.14592654  .00001132  00000+0  89183-4 0  9999",
    "TLE_LINE2": "2 51984  53.2160 211.3717 0001122  87.4955 272.6165 15.08837739203164",
    "COMMENT": "Grouped by shell and plane from TLE"
  },
  {
    "OBJECT_NAME": "STARLINK-3651",
    "OBJECT_ID": "22025AF",
    "EPOCH": "2025-11-11T02:26:31.367616",
    "MEAN_MOTION": 15.08854845,
    "ECCENTRICITY": 0.0001899,
    "INCLINATION": 53.2165,
    "RA_OF_ASC_NODE": 211.4931,
    "ARG_OF_PERICENTER": 103.7428,
    "MEAN_ANOMALY": 256.3775,
    "EPHEMERIS_TYPE": 0,
    "CLASSIFICATION_TYPE": "U",
    "NORAD_CAT_ID": 51985,
    "ELEMENT_SET_NO": 999,
    "REV_AT_EPOCH": 20315,
    "BSTAR": 7.3737e-05,
    "MEAN_MOTION_DOT": 8.86e-06,
    "MEAN_MOTION_DDOT": 0.0,
    "TLE_LINE1": "1 51985U 22025AF  25315.10175194  .00000886  00000+0  73737-4 0  9995",
    "TLE_LINE2": "2 51985  53.2165 211.4931 0001899 103.7428 256.3775 15.08854845203159",
    "COMMENT": "Grouped by shell and plane from TLE"
  },
  {
    "OBJECT_NAME": "STARLINK-3645",
    "OBJECT_ID": "22025AG",
    "EPOCH": "2025-11-11T02:46:19.287264",
    "MEAN_MOTION": 15.08850349,
    "ECCENTRICITY": 0.0001388,
    "INCLINATION": 53.2156,
    "RA_OF_ASC_NODE": 211.2672,
    "ARG_OF_PERICENTER": 83.5002,
    "MEAN_ANOMALY": 276.6148,
    "EPHEMERIS_TYPE": 0,
    "CLASSIFICATION_TYPE": "U",
    "NORAD_CAT_ID": 51986,
    "ELEMENT_SET_NO": 999,
    "REV_AT_EPOCH": 20316,
    "BSTAR": 0.00033467999999999996,
    "MEAN_MOTION_DOT": 5.044e-05,
    "MEAN_MOTION_DDOT": 0.0,
    "TLE_LINE1": "1 51986U 22025AG  25315.11550101  .00005044  00000+0  33468-3 0  9999",
    "TLE_LINE2": "2 51986  53.2156 211.2672 0001388  83.5002 276.6148 15.08850349203161",
    "COMMENT": "Grouped by shell and plane from TLE"
  },
  {
    "OBJECT_NAME": "STARLINK-3644",
    "OBJECT_ID": "22025AH",
    "EPOCH": "2025-11-11T03:28:44.506848",
    "MEAN_MOTION": 15.08836517,
    "ECCENTRICITY": 0.0001433,
    "INCLINATION": 53.217,
    "RA_OF_ASC_NODE": 211.2899,
    "ARG_OF_PERICENTER": 83.2366,
    "MEAN_ANOMALY": 276.8789,
    "EPHEMERIS_TYPE": 0,
    "CLASSIFICATION_TYPE": "U",
    "NORAD_CAT_ID": 51987,
    "ELEMENT_SET_NO": 999,
    "REV_AT_EPOCH": 20316,
    "BSTAR": 0.00010965,
    "MEAN_MOTION_DOT": 1.457e-05,
    "MEAN_MOTION_DDOT": 0.0,
    "TLE_LINE1": "1 51987U 22025AH  25315.14495957  .00001457  00000+0  10965-3 0  9991",
    "TLE_LINE2": "2 51987  53.2170 211.2899 0001433  83.2366 276.8789 15.08836517203164",
    "COMMENT": "Grouped by shell and plane from TLE"
  },
  {
    "OBJECT_NAME": "STARLINK-3640",
    "OBJECT_ID": "22025AJ",
    "EPOCH": "2025-11-11T03:02:14.533440",
    "MEAN_MOTION": 15.08858672,
    "ECCENTRICITY": 0.0001501,
    "INCLINATION": 53.2153,
    "RA_OF_ASC_NODE": 211.3736,
    "ARG_OF_PERICENTER": 87.3977,
    "MEAN_ANOMALY": 272.7187,
    "EPHEMERIS_TYPE": 0,
    "CLASSIFICATION_TYPE": "U",
    "NORAD_CAT_ID": 51988,
    "ELEMENT_SET_NO": 999,
    "REV_AT_EPOCH": 20316,
    "BSTAR": 0.0005062100000000001,
    "MEAN_MOTION_DOT": 7.782e-05,
    "MEAN_MOTION_DDOT": 0.0,
    "TLE_LINE1": "1 51988U 22025AJ  25315.12655710  .00007782  00000+0  50621-3 0  9995",
    "TLE_LINE2": "2 51988  53.2153 211.3736 0001501  87.3977 272.7187 15.08858672203169",
    "COMMENT": "Grouped by shell and plane from TLE"
  },
  {
    "OBJECT_NAME": "STARLINK-3642",
    "OBJECT_ID": "22025AK",
    "EPOCH": "2025-11-11T03:23:25.924992",
    "MEAN_MOTION": 15.0885231,
    "ECCENTRICITY": 0.0001437,
    "INCLINATION": 53.2174,
    "RA_OF_ASC_NODE": 211.3041,
    "ARG_OF_PERICENTER": 85.6147,
    "MEAN_ANOMALY": 274.5009,
    "EPHEMERIS_TYPE": 0,
    "CLASSIFICATION_TYPE": "U",
    "NORAD_CAT_ID": 51989,
    "ELEMENT_SET_NO": 999,
    "REV_AT_EPOCH": 20316,
    "BSTAR": 0.00012758,
    "MEAN_MOTION_DOT": 1.744e-05,
    "MEAN_MOTION_DDOT": 0.0,
    "TLE_LINE1": "1 51989U 22025AK  25315.14127228  .00001744  00000+0  12758-3 0  9997",
    "TLE_LINE2": "2 51989  53.2174 211.3041 0001437  85.6147 274.5009 15.08852310203166",
    "COMMENT": "Grouped by shell and plane from TLE"
  },
  {
    "OBJECT_NAME": "STARLINK-3652",
    "OBJECT_ID": "22025AM",
    "EPOCH": "2025-11-11T03:12:50.705280",
    "MEAN_MOTION": 15.08843807,
    "ECCENTRICITY": 0.0001407,
    "INCLINATION": 53.2162,
    "RA_OF_ASC_NODE": 211.3385,
    "ARG_OF_PERICENTER": 102.2821,
    "MEAN_ANOMALY": 257.8329,
    "EPHEMERIS_TYPE": 0,
    "CLASSIFICATION_TYPE": "U",
    "NORAD_CAT_ID": 51991,
    "ELEMENT_SET_NO": 999,
    "REV_AT_EPOCH": 20316,
    "BSTAR": 0.00026155,
    "MEAN_MOTION_DOT": 3.878e-05,
    "MEAN_MOTION_DDOT": 0.0,
    "TLE_LINE1": "1 51991U 22025AM  25315.13392020  .00003878  00000+0  26155-3 0  9999",
    "TLE_LINE2": "2 51991  53.2162 211.3385 0001407 102.2821 257.8329 15.08843807203169",
    "COMMENT": "Grouped by shell and plane from TLE"
  },
  {
    "OBJECT_NAME": "STARLINK-3648",
    "OBJECT_ID": "22025AP",
    "EPOCH": "2025-11-11T02:56:56.286816",
    "MEAN_MOTION": 15.08852738,
    "ECCENTRICITY": 0.0001261,
    "INCLINATION": 53.2168,
    "RA_OF_ASC_NODE": 211.3889,
    "ARG_OF_PERICENTER": 112.68,
    "MEAN_ANOMALY": 247.4326,
    "EPHEMERIS_TYPE": 0,
    "CLASSIFICATION_TYPE": "U",
    "NORAD_CAT_ID": 51993,
    "ELEMENT_SET_NO": 999,
    "REV_AT_EPOCH": 20316,
    "BSTAR": 0.0,
    "MEAN_MOTION_DOT": -2.43e-05,
    "MEAN_MOTION_DDOT": 0.0,
    "TLE_LINE1": "1 51993U 22025AP  25315.12287369 -.00002430  00000+0 -13459-3 0  9997",
    "TLE_LINE2": "2 51993  53.2168 211.3889 0001261 112.6800 247.4326 15.08852738203161",
    "COMMENT": "Grouped by shell and plane from TLE"
  },
  {
    "OBJECT_NAME": "STARLINK-3871",
    "OBJECT_ID": "22049AX",
    "EPOCH": "2025-11-11T03:25:25.254624",
    "MEAN_MOTION": 15.08845998,
    "ECCENTRICITY": 0.0001509,
    "INCLINATION": 53.217,
    "RA_OF_ASC_NODE": 216.3001,
    "ARG_OF_PERICENTER": 76.463,
    "MEAN_ANOMALY": 283.653,
    "EPHEMERIS_TYPE": 0,
    "CLASSIFICATION_TYPE": "U",
    "NORAD_CAT_ID": 52496,
    "ELEMENT_SET_NO": 999,
    "REV_AT_EPOCH": 19456,
    "BSTAR": 0.00014123,
    "MEAN_MOTION_DOT": 1.961e-05,
    "MEAN_MOTION_DDOT": 0.0,
    "TLE_LINE1": "1 52496U 22049AX  25315.14265341  .00001961  00000+0  14123-3 0  9995",
    "TLE_LINE2": "2 52496  53.2170 216.3001 0001509  76.4630 283.6530 15.08845998194569",
    "COMMENT": "Grouped by shell and plane from TLE"
  },
  {
    "OBJECT_NAME": "STARLINK-3925",
    "OBJECT_ID": "22049AZ",
    "EPOCH": "2025-11-11T00:33:52.144416",
    "MEAN_MOTION": 15.08832796,
    "ECCENTRICITY": 0.0001295,
    "INCLINATION": 53.2175,
    "RA_OF_ASC_NODE": 211.835,
    "ARG_OF_PERICENTER": 92.4159,
    "MEAN_ANOMALY": 267.6981,
    "EPHEMERIS_TYPE": 0,
    "CLASSIFICATION_TYPE": "U",
    "NORAD_CAT_ID": 52498,
    "ELEMENT_SET_NO": 999,
    "REV_AT_EPOCH": 19461,
    "BSTAR": 0.00023799000000000002,
    "MEAN_MOTION_DOT": 3.501e-05,
    "MEAN_MOTION_DDOT": 0.0,
    "TLE_LINE1": "1 52498U 22049AZ  25315.02352019  .00003501  00000+0  23799-3 0  9994",
    "TLE_LINE2": "2 52498  53.2175 211.8350 0001295  92.4159 267.6981 15.08832796194619",
    "COMMENT": "Grouped by shell and plane from TLE"
  },
  {
    "OBJECT_NAME": "STARLINK-3866",
    "OBJECT_ID": "22049BB",
    "EPOCH": "2025-11-11T02:03:57.679200",
    "MEAN_MOTION": 15.08850734,
    "ECCENTRICITY": 0.0001624,
    "INCLINATION": 53.2174,
    "RA_OF_ASC_NODE": 211.5538,
    "ARG_OF_PERICENTER": 81.042,
    "MEAN_ANOMALY": 279.0756,
    "EPHEMERIS_TYPE": 0,
    "CLASSIFICATION_TYPE": "U",
    "NORAD_CAT_ID": 52500,
    "ELEMENT_SET_NO": 999,
    "REV_AT_EPOCH": 19462,
    "BSTAR": 6.6871e-05,
    "MEAN_MOTION_DOT": 7.77e-06,
    "MEAN_MOTION_DDOT": 0.0,
    "TLE_LINE1": "1 52500U 22049BB  25315.08608425  .00000777  00000+0  66871-4 0  9990",
    "TLE_LINE2": "2 52500  53.2174 211.5538 0001624  81.0420 279.0756 15.08850734194628",
    "COMMENT": "Grouped by shell and plane from TLE"
  }
]